{
  "type": "FeatureCollection",
  "features": [
    {
      "type": "Feature",
      "properties": {
        "norad_id": 33886,
        "name": "IRIDIUM 33 DEB",
        "group": "iridium-33-debris",
        "lat": -22.515915543435135,
        "lon": 67.1998090762004,
        "alt_km": 775.8554557756279,
        "timestamp": "2025-12-09T05:43:21.110540+00:00",
        "meta_object_name": "IRIDIUM 33 DEB",
        "meta_object_id": "1997-051BF",
        "meta_epoch": "2025-12-08T18:39:56.221056",
        "meta_mean_motion": 14.36045449,
        "meta_eccentricity": 0.0012112,
        "meta_inclination": 86.383,
        "meta_ra_of_asc_node": 68.8962,
        "meta_arg_of_pericenter": 256.974,
        "meta_mean_anomaly": 220.2122,
        "meta_ephemeris_type": 0,
        "meta_classification_type": "U",
        "meta_norad_cat_id": 33886,
        "meta_element_set_no": 999,
        "meta_rev_at_epoch": 87995,
        "meta_bstar": 0.00040017,
        "meta_mean_motion_dot": 1.183e-05,
        "meta_mean_motion_ddot": 0,
        "tle_line1": "1 33886U 97051BF  25342.77773404  .00001183  00000+0  40017-3 0  9992",
        "tle_line2": "2 33886  86.3830  68.8962 0012112 256.9740 220.2122 14.36045449879956"
      },
      "geometry": {
        "type": "Point",
        "coordinates": [
          67.1998090762004,
          -22.515915543435135
        ]
      }
    },
    {
      "type": "Feature",
      "properties": {
        "norad_id": 33887,
        "name": "IRIDIUM 33 DEB",
        "group": "iridium-33-debris",
        "lat": -78.3794360026681,
        "lon": -156.78271611375732,
        "alt_km": 772.2746165166727,
        "timestamp": "2025-12-09T05:43:21.110551+00:00",
        "meta_object_name": "IRIDIUM 33 DEB",
        "meta_object_id": "1997-051BG",
        "meta_epoch": "2025-12-08T12:25:25.149216",
        "meta_mean_motion": 14.37215851,
        "meta_eccentricity": 0.00041571,
        "meta_inclination": 86.3048,
        "meta_ra_of_asc_node": 5.2119,
        "meta_arg_of_pericenter": 246.101,
        "meta_mean_anomaly": 245.8633,
        "meta_ephemeris_type": 0,
        "meta_classification_type": "U",
        "meta_norad_cat_id": 33887,
        "meta_element_set_no": 999,
        "meta_rev_at_epoch": 88104,
        "meta_bstar": 0.00027289302,
        "meta_mean_motion_dot": 8.32e-06,
        "meta_mean_motion_ddot": 0,
        "tle_line1": "1 33887U 97051BG  25342.51765219  .00000832  00000+0  27289-3 0  9996",
        "tle_line2": "2 33887  86.3048   5.2119 0004157 246.1010 245.8633 14.37215851881048"
      },
      "geometry": {
        "type": "Point",
        "coordinates": [
          -156.78271611375732,
          -78.3794360026681
        ]
      }
    },
    {
      "type": "Feature",
      "properties": {
        "norad_id": 33953,
        "name": "IRIDIUM 33 DEB",
        "group": "iridium-33-debris",
        "lat": -66.85856166687591,
        "lon": -116.19259715468351,
        "alt_km": 724.8812881456797,
        "timestamp": "2025-12-09T05:43:21.110562+00:00",
        "meta_object_name": "IRIDIUM 33 DEB",
        "meta_object_id": "1997-051BN",
        "meta_epoch": "2025-12-08T15:57:49.131936",
        "meta_mean_motion": 14.55261918,
        "meta_eccentricity": 0.0018478,
        "meta_inclination": 86.3841,
        "meta_ra_of_asc_node": 55.5477,
        "meta_arg_of_pericenter": 115.1859,
        "meta_mean_anomaly": 10.2465,
        "meta_ephemeris_type": 0,
        "meta_classification_type": "U",
        "meta_norad_cat_id": 33953,
        "meta_element_set_no": 999,
        "meta_rev_at_epoch": 88244,
        "meta_bstar": 0.0018443,
        "meta_mean_motion_dot": 8.026e-05,
        "meta_mean_motion_ddot": 0,
        "tle_line1": "1 33953U 97051BN  25342.66515199  .00008026  00000+0  18443-2 0  9990",
        "tle_line2": "2 33953  86.3841  55.5477 0018478 115.1859  10.2465 14.55261918882442"
      },
      "geometry": {
        "type": "Point",
        "coordinates": [
          -116.19259715468351,
          -66.85856166687591
        ]
      }
    },
    {
      "type": "Feature",
      "properties": {
        "norad_id": 33960,
        "name": "IRIDIUM 33 DEB",
        "group": "iridium-33-debris",
        "lat": 36.54969806750133,
        "lon": -66.05148390964374,
        "alt_km": 607.0124795411239,
        "timestamp": "2025-12-09T05:43:21.110573+00:00",
        "meta_object_name": "IRIDIUM 33 DEB",
        "meta_object_id": "1997-051BV",
        "meta_epoch": "2025-12-08T09:06:17.165376",
        "meta_mean_motion": 14.84831157,
        "meta_eccentricity": 0.00073038,
        "meta_inclination": 86.2539,
        "meta_ra_of_asc_node": 291.5693,
        "meta_arg_of_pericenter": 68.5761,
        "meta_mean_anomaly": 59.0624,
        "meta_ephemeris_type": 0,
        "meta_classification_type": "U",
        "meta_norad_cat_id": 33960,
        "meta_element_set_no": 999,
        "meta_rev_at_epoch": 88802,
        "meta_bstar": 0.003761271,
        "meta_mean_motion_dot": 0.0003209,
        "meta_mean_motion_ddot": 0,
        "tle_line1": "1 33960U 97051BV  25342.37936534  .00032090  00000+0  37613-2 0  9994",
        "tle_line2": "2 33960  86.2539 291.5693 0007303  68.5761  59.0624 14.84831157888021"
      },
      "geometry": {
        "type": "Point",
        "coordinates": [
          -66.05148390964374,
          36.54969806750133
        ]
      }
    },
    {
      "type": "Feature",
      "properties": {
        "norad_id": 33966,
        "name": "IRIDIUM 33 DEB",
        "group": "iridium-33-debris",
        "lat": 83.66730548892228,
        "lon": 82.17523425085659,
        "alt_km": 721.738569521166,
        "timestamp": "2025-12-09T05:43:21.110585+00:00",
        "meta_object_name": "IRIDIUM 33 DEB",
        "meta_object_id": "1997-051CB",
        "meta_epoch": "2025-12-08T16:37:01.548192",
        "meta_mean_motion": 14.49569326,
        "meta_eccentricity": 0.0006946,
        "meta_inclination": 86.3923,
        "meta_ra_of_asc_node": 47.7641,
        "meta_arg_of_pericenter": 202.0511,
        "meta_mean_anomaly": 275.0616,
        "meta_ephemeris_type": 0,
        "meta_classification_type": "U",
        "meta_norad_cat_id": 33966,
        "meta_element_set_no": 999,
        "meta_rev_at_epoch": 88383,
        "meta_bstar": 0.00096319,
        "meta_mean_motion_dot": 3.715e-05,
        "meta_mean_motion_ddot": 0,
        "tle_line1": "1 33966U 97051CB  25342.69237903  .00003715  00000+0  96319-3 0  9990",
        "tle_line2": "2 33966  86.3923  47.7641 0006946 202.0511 275.0616 14.49569326883831"
      },
      "geometry": {
        "type": "Point",
        "coordinates": [
          82.17523425085659,
          83.66730548892228
        ]
      }
    },
    {
      "type": "Feature",
      "properties": {
        "norad_id": 34071,
        "name": "IRIDIUM 33 DEB",
        "group": "iridium-33-debris",
        "lat": 26.8762593913498,
        "lon": -162.50599552848902,
        "alt_km": 720.9250913700489,
        "timestamp": "2025-12-09T05:43:21.110596+00:00",
        "meta_object_name": "IRIDIUM 33 DEB",
        "meta_object_id": "1997-051CE",
        "meta_epoch": "2025-12-08T15:45:53.538624",
        "meta_mean_motion": 14.49438638,
        "meta_eccentricity": 0.0009791,
        "meta_inclination": 86.3456,
        "meta_ra_of_asc_node": 19.6028,
        "meta_arg_of_pericenter": 118.4597,
        "meta_mean_anomaly": 241.7595,
        "meta_ephemeris_type": 0,
        "meta_classification_type": "U",
        "meta_norad_cat_id": 34071,
        "meta_element_set_no": 999,
        "meta_rev_at_epoch": 88275,
        "meta_bstar": 0.0010328,
        "meta_mean_motion_dot": 3.973e-05,
        "meta_mean_motion_ddot": 0,
        "tle_line1": "1 34071U 97051CE  25342.65686966  .00003973  00000+0  10328-2 0  9992",
        "tle_line2": "2 34071  86.3456  19.6028 0009791 118.4597 241.7595 14.49438638882759"
      },
      "geometry": {
        "type": "Point",
        "coordinates": [
          -162.50599552848902,
          26.8762593913498
        ]
      }
    },
    {
      "type": "Feature",
      "properties": {
        "norad_id": 34077,
        "name": "IRIDIUM 33 DEB",
        "group": "iridium-33-debris",
        "lat": 17.600775385950502,
        "lon": -128.09910252034433,
        "alt_km": 681.1743640733212,
        "timestamp": "2025-12-09T05:43:21.110608+00:00",
        "meta_object_name": "IRIDIUM 33 DEB",
        "meta_object_id": "1997-051CL",
        "meta_epoch": "2025-12-08T16:24:26.668800",
        "meta_mean_motion": 14.64746449,
        "meta_eccentricity": 0.0010602,
        "meta_inclination": 86.3858,
        "meta_ra_of_asc_node": 53.2941,
        "meta_arg_of_pericenter": 52.2833,
        "meta_mean_anomaly": 66.251,
        "meta_ephemeris_type": 0,
        "meta_classification_type": "U",
        "meta_norad_cat_id": 34077,
        "meta_element_set_no": 999,
        "meta_rev_at_epoch": 88273,
        "meta_bstar": 0.0022936,
        "meta_mean_motion_dot": 0.00012259,
        "meta_mean_motion_ddot": 0,
        "tle_line1": "1 34077U 97051CL  25342.68364200  .00012259  00000+0  22936-2 0  9990",
        "tle_line2": "2 34077  86.3858  53.2941 0010602  52.2833  66.2510 14.64746449882734"
      },
      "geometry": {
        "type": "Point",
        "coordinates": [
          -128.09910252034433,
          17.600775385950502
        ]
      }
    }
  ]
}